{
    "links": {
        "self": "http://www.neowsapp.com/rest/v1/neo/3837788?api_key=iIulBulltgU6a56xZRHN4H3l9WmuAYTsLGpBGhQ2"
    },
    "id": "3837788",
    "neo_reference_id": "3837788",
    "name": "(2019 AY8)",
    "designation": "2019 AY8",
    "nasa_jpl_url": "http://ssd.jpl.nasa.gov/sbdb.cgi?sstr=3837788",
    "absolute_magnitude_h": 21.3,
    "estimated_diameter": {
        "kilometers": {
            "estimated_diameter_min": 0.1460679643,
            "estimated_diameter_max": 0.3266178974
        },
        "meters": {
            "estimated_diameter_min": 146.0679642714,
            "estimated_diameter_max": 326.6178974458
        },
        "miles": {
            "estimated_diameter_min": 0.090762397,
            "estimated_diameter_max": 0.2029508896
        },
        "feet": {
            "estimated_diameter_min": 479.2256199,
            "estimated_diameter_max": 1071.581062656
        }
    },
    "is_potentially_hazardous_asteroid": false,
    "close_approach_data": [
        {
            "close_approach_date": "2018-12-17",
            "close_approach_date_full": "2018-Dec-17 02:32",
            "epoch_date_close_approach": 1545013920000,
            "relative_velocity": {
                "kilometers_per_second": "16.3545250854",
                "kilometers_per_hour": "58876.2903073216",
                "miles_per_hour": "36583.4371634577"
            },
            "miss_distance": {
                "astronomical": "0.2832937766",
                "lunar": "110.2012790974",
                "kilometers": "42380145.563615842",
                "miles": "26333801.3386369396"
            },
            "orbiting_body": "Earth"
        }
    ],
    "orbital_data": {
        "orbit_id": "3",
        "orbit_determination_date": "2019-01-27 07:53:32",
        "first_observation_date": "2019-01-09",
        "last_observation_date": "2019-01-26",
        "data_arc_in_days": 17,
        "observations_used": 23,
        "orbit_uncertainty": "7",
        "minimum_orbit_intersection": ".282175",
        "jupiter_tisserand_invariant": "3.997",
        "epoch_osculation": "2459000.5",
        "eccentricity": ".2568793816934373",
        "semi_major_axis": "1.703340429705486",
        "inclination": "31.58938289604641",
        "ascending_node_longitude": "265.6155083960192",
        "orbital_period": "811.9898658473776",
        "perihelion_distance": "1.265787393309307",
        "perihelion_argument": "177.9011918830977",
        "aphelion_distance": "2.140893466101665",
        "perihelion_time": "2459282.136799814542",
        "mean_anomaly": "235.1348357932679",
        "mean_motion": ".4433552869829362",
        "equinox": "J2000",
        "orbit_class": {
            "orbit_class_type": "AMO",
            "orbit_class_description": "Near-Earth asteroid orbits similar to that of 1221 Amor",
            "orbit_class_range": "1.017 AU < q (perihelion) < 1.3 AU"
        }
    },
    "is_sentry_object": false
}